NORAD_CAT_ID,OBJECT_NAME,OBJECT_TYPE,EPOCH,MEAN_MOTION,ECCENTRICITY,INCLINATION,RA_OF_ASC_NODE,ARG_OF_PERICENTER,MEAN_ANOMALY,BSTAR,MEAN_MOTION_DOT,MEAN_MOTION_DDOT,TLE_LINE0,TLE_LINE1,TLE_LINE2,SEMIMAJOR_AXIS,PERIOD,APOGEE,PERIGEE,DECAYED
52583.0,STARLINK-3895,PAYLOAD,2024-06-01 05:36:29,15.08834847,0.0001422,53.2168,141.1743,94.6216,265.4939,3.8032e-05,3.17e-06,0.0,0 STARLINK-3895,1 52583U 22051AZ  24153.23366964  .00000317  00000-0  38032-4 0  9998,2 52583  53.2168 141.1743 0001422  94.6216 265.4939 15.08834847114066,6917.896,95.438,540.745,538.777,0.0
52583.0,STARLINK-3895,PAYLOAD,2024-06-01 08:47:15,15.08835546,0.0001447,53.2171,140.5803,94.8451,265.2706,3.9104e-05,3.34e-06,0.0,0 STARLINK-3895,1 52583U 22051AZ  24153.36614962  .00000334  00000-0  39104-4 0  9996,2 52583  53.2171 140.5803 0001447  94.8451 265.2706 15.08835546114012,6917.894,95.438,540.76,538.758,0.0
52583.0,STARLINK-3895,PAYLOAD,2024-06-02 08:38:01,15.08843349,0.0001417,53.2169,136.1197,91.4782,268.6372,3.8321e-05,3.22e-06,0.0,0 STARLINK-3895,1 52583U 22051AZ  24154.35974510  .00000322  00000-0  38321-4 0  9991,2 52583  53.2169 136.1197 0001417  91.4782 268.6372 15.08843349114233,6917.87,95.437,540.715,538.755,0.0
52583.0,STARLINK-3895,PAYLOAD,2024-06-03 05:18:03,15.0883727,0.0001389,53.2172,132.2533,91.5481,268.567,8.5082e-05,1.066e-05,0.0,0 STARLINK-3895,1 52583U 22051AZ  24155.22086874  .00001066  00000-0  85082-4 0  9997,2 52583  53.2172 132.2533 0001389  91.5481 268.5670 15.08837270114363,6917.889,95.438,540.715,538.793,0.0
52583.0,STARLINK-3895,PAYLOAD,2024-06-03 22:47:17,15.08839539,0.0001404,53.2171,128.9823,91.5992,268.5161,4.475e-05,4.24e-06,0.0,0 STARLINK-3895,1 52583U 22051AZ  24155.94950951  .00000424  00000-0  44750-4 0  9996,2 52583  53.2171 128.9823 0001404  91.5992 268.5161 15.08839539114401,6917.882,95.438,540.718,538.776,0.0
52583.0,STARLINK-3895,PAYLOAD,2024-06-04 03:33:27,15.08839509,0.0001351,53.2176,128.0902,90.9272,269.1875,4.9182e-05,4.95e-06,0.0,0 STARLINK-3895,1 52583U 22051AZ  24156.14822962  .00000495  00000-0  49182-4 0  9991,2 52583  53.2176 128.0902 0001351  90.9272 269.1875 15.08839509114439,6917.882,95.438,540.681,538.812,0.0
52583.0,STARLINK-3895,PAYLOAD,2024-06-04 14:41:08,15.08848008,0.0001319,53.2183,126.009,89.9083,270.206,9.2625e-05,1.187e-05,0.0,0 STARLINK-3895,1 52583U 22051AZ  24156.61190231  .00001187  00000-0  92625-4 0  9999,2 52583  53.2183 126.0090 0001319  89.9083 270.2060 15.08848008114573,6917.856,95.437,540.633,538.808,0.0
52583.0,STARLINK-3895,PAYLOAD,2024-06-04 22:38:04,15.08837049,0.0001458,53.2194,124.5262,96.0462,264.0696,4.6106e-05,4.46e-06,0.0,0 STARLINK-3895,1 52583U 22051AZ  24156.94311138  .00000446  00000-0  46106-4 0  9996,2 52583  53.2194 124.5262 0001458  96.0462 264.0696 15.08837049114550,6917.889,95.438,540.763,538.746,0.0
52583.0,STARLINK-3895,PAYLOAD,2024-06-05 04:59:37,15.08845939,0.0001251,53.2195,123.3382,95.8417,264.2718,-0.00013757,-2.477e-05,0.0,0 STARLINK-3895,1 52583U 22051AZ  24157.20807217 -.00002477  00000-0 -13757-3 0  9997,2 52583  53.2195 123.3382 0001251  95.8417 264.2718 15.08845939114665,6917.862,95.437,540.593,538.862,0.0
52583.0,STARLINK-3895,PAYLOAD,2024-06-05 14:31:55,15.08840786,0.0001299,53.2183,121.5513,92.0915,268.0226,6.5172e-05,7.49e-06,0.0,0 STARLINK-3895,1 52583U 22051AZ  24157.60550860  .00000749  00000-0  65172-4 0  9997,2 52583  53.2183 121.5513 0001299  92.0915 268.0226 15.08840786114652,6917.878,95.438,540.642,538.844,0.0
52583.0,STARLINK-3895,PAYLOAD,2024-06-06 14:22:42,15.08850043,0.0001576,53.2189,117.0877,75.1654,284.9512,6.6734e-05,7.74e-06,0.0,0 STARLINK-3895,1 52583U 22051AZ  24158.59910486  .00000774  00000-0  66734-4 0  9993,2 52583  53.2189 117.0877 0001576  75.1654 284.9512 15.08850043114800,6917.85,95.437,540.805,538.624,0.0
52583.0,STARLINK-3895,PAYLOAD,2024-06-07 14:13:30,15.08843858,0.000137,53.2174,112.6284,84.2785,275.8363,6.792e-05,7.93e-06,0.0,0 STARLINK-3895,1 52583U 22051AZ  24159.59271032  .00000793  00000-0  67920-4 0  9990,2 52583  53.2174 112.6284 0001370  84.2785 275.8363 15.08843858114950,6917.869,95.437,540.681,538.786,0.0
52583.0,STARLINK-3895,PAYLOAD,2024-06-07 20:35:02,15.08838857,0.000137,53.2169,111.4406,86.745,273.3699,0.00011515,1.545e-05,0.0,0 STARLINK-3895,1 52583U 22051AZ  24159.85767278  .00001545  00000-0  11515-3 0  9995,2 52583  53.2169 111.4406 0001370  86.7450 273.3699 15.08838857115064,6917.884,95.438,540.697,538.801,0.0
52583.0,STARLINK-3895,PAYLOAD,2024-06-08 14:04:16,15.08855009,0.0001498,53.2191,108.1667,91.7911,268.3253,9.5057e-05,1.226e-05,0.0,0 STARLINK-3895,1 52583U 22051AZ  24160.58630059  .00001226  00000-0  95057-4 0  9993,2 52583  53.2191 108.1667 0001498  91.7911 268.3253 15.08855009115103,6917.835,95.437,540.736,538.663,0.0
52583.0,STARLINK-3895,PAYLOAD,2024-06-09 02:47:23,15.08826037,0.0001372,53.2182,105.7885,100.2081,259.9066,3.996e-05,3.48e-06,0.0,0 STARLINK-3895,1 52583U 22051AZ  24161.11624254  .00000348  00000-0  39960-4 0  9998,2 52583  53.2182 105.7885 0001372 100.2081 259.9066 15.08826037115256,6917.923,95.438,540.737,538.839,0.0
52583.0,STARLINK-3895,PAYLOAD,2024-06-09 13:55:04,15.08841766,0.0001483,53.2177,103.7072,101.5034,258.6125,2.8119e-05,1.6e-06,0.0,0 STARLINK-3895,1 52583U 22051AZ  24161.57991455  .00000160  00000-0  28119-4 0  9994,2 52583  53.2177 103.7072 0001483 101.5034 258.6125 15.08841766115259,6917.875,95.437,540.766,538.714,0.0
52583.0,STARLINK-3895,PAYLOAD,2024-06-10 02:38:10,15.08834897,0.0001264,53.2169,101.3291,96.4478,263.6658,3.2587e-05,2.31e-06,0.0,0 STARLINK-3895,1 52583U 22051AZ  24162.10984007  .00000231  00000-0  32587-4 0  9992,2 52583  53.2169 101.3291 0001264  96.4478 263.6658 15.08834897115409,6917.896,95.438,540.635,538.887,0.0
52583.0,STARLINK-3895,PAYLOAD,2024-06-10 05:48:56,15.08841561,0.0001605,53.2193,100.7333,102.033,258.0842,-1.9835e-05,-6.04e-06,0.0,0 STARLINK-3895,1 52583U 22051AZ  24162.24231735 -.00000604  00000-0 -19835-4 0  9997,2 52583  53.2193 100.7333 0001605 102.0330 258.0842 15.08841561115359,6917.876,95.437,540.851,538.63,0.0
52583.0,STARLINK-3895,PAYLOAD,2024-06-11 12:01:15,15.08849641,0.0001277,53.2181,95.0859,98.2257,261.888,0.00018788,2.704e-05,0.0,0 STARLINK-3895,1 52583U 22051AZ  24163.50086954  .00002704  00000-0  18788-3 0  9994,2 52583  53.2181  95.0859 0001277  98.2257 261.8880 15.08849641115546,6917.851,95.437,540.599,538.833,0.0
52583.0,STARLINK-3895,PAYLOAD,2024-06-12 02:19:44,15.08831123,0.0001286,53.2193,92.4146,86.7007,273.4133,0.00014797,2.067e-05,0.0,0 STARLINK-3895,1 52583U 22051AZ  24164.09704363  .00002067  00000-0  14797-3 0  9998,2 52583  53.2193  92.4146 0001286  86.7007 273.4133 15.08831123115708,6917.908,95.438,540.662,538.883,0.0
52583.0,STARLINK-3895,PAYLOAD,2024-06-12 11:52:02,15.08849759,0.0001579,53.2204,90.6279,97.8569,262.2602,0.00011116,1.482e-05,0.0,0 STARLINK-3895,1 52583U 22051AZ  24164.49447105  .00001482  00000-0  11116-3 0  9992,2 52583  53.2204  90.6279 0001579  97.8569 262.2602 15.08849759115766,6917.851,95.437,540.808,538.623,0.0
52583.0,STARLINK-3895,PAYLOAD,2024-06-13 00:35:10,15.08815784,0.0001372,53.2187,88.2473,96.9548,263.1601,-0.00016929,-2.979e-05,0.0,0 STARLINK-3895,1 52583U 22051AZ  24165.02442516 -.00002979  00000-0 -16929-3 0  9994,2 52583  53.2187  88.2473 0001372  96.9548 263.1601 15.08815784115842,6917.954,95.439,540.769,538.87,0.0
52583.0,STARLINK-3895,PAYLOAD,2024-06-13 11:42:52,15.0882496,0.0001474,53.2186,86.1666,97.4484,262.6676,-0.00011615,-2.135e-05,0.0,0 STARLINK-3895,1 52583U 22051AZ  24165.48810280 -.00002135  00000-0 -11615-3 0  9992,2 52583  53.2186  86.1666 0001474  97.4484 262.6676 15.08824960115910,6917.926,95.439,540.811,538.772,0.0
52583.0,STARLINK-3895,PAYLOAD,2024-06-13 22:50:33,15.08832768,0.0001243,53.2174,84.0859,97.0091,263.1043,0.00011381,1.524e-05,0.0,0 STARLINK-3895,1 52583U 22051AZ  24165.95177592  .00001524  00000-0  11381-3 0  9995,2 52583  53.2174  84.0859 0001243  97.0091 263.1043 15.08832768115911,6917.902,95.438,540.627,538.908,0.0
52583.0,STARLINK-3895,PAYLOAD,2024-06-14 11:33:37,15.08852262,0.00014,53.2175,81.7025,83.0943,277.0208,0.00033605,5.066e-05,0.0,0 STARLINK-3895,1 52583U 22051AZ  24166.48168862  .00005066  00000-0  33605-3 0  9992,2 52583  53.2175  81.7025 0001400  83.0943 277.0208 15.08852262115993,6917.843,95.437,540.676,538.739,0.0
52583.0,STARLINK-3895,PAYLOAD,2024-06-14 22:41:20,15.08852247,0.0001491,53.2175,79.6205,86.185,273.9312,0.00065622,0.00010175,0.0,0 STARLINK-3895,1 52583U 22051AZ  24166.94537396  .00010175  00000-0  65622-3 0  9996,2 52583  53.2175  79.6205 0001491  86.1850 273.9312 15.08852247116063,6917.843,95.437,540.739,538.677,0.0
52583.0,STARLINK-3895,PAYLOAD,2024-06-15 11:24:24,15.08874203,0.0001315,53.2176,77.2413,84.7036,275.4107,0.000728,0.00011328,0.0,0 STARLINK-3895,1 52583U 22051AZ  24167.47528046  .00011328  00000-0  72800-3 0  9994,2 52583  53.2176  77.2413 0001315  84.7036 275.4107 15.08874203116148,6917.776,95.435,540.551,538.731,0.0
52583.0,STARLINK-3895,PAYLOAD,2024-06-15 22:32:06,15.08852251,0.0001676,53.217,75.1613,86.7555,273.3629,0.00030568,4.582e-05,0.0,0 STARLINK-3895,1 52583U 22051AZ  24167.93896306  .00004582  00000-0  30568-3 0  9991,2 52583  53.2170  75.1613 0001676  86.7555 273.3629 15.08852251116212,6917.843,95.437,540.867,538.549,0.0
52583.0,STARLINK-3895,PAYLOAD,2024-06-16 11:15:11,15.08857375,0.0001618,53.2163,72.7827,87.6041,272.5136,0.0013441,0.00021178,0.0,0 STARLINK-3895,1 52583U 22051AZ  24168.46888235  .00021178  00000-0  13441-2 0  9992,2 52583  53.2163  72.7827 0001618  87.6041 272.5136 15.08857375116294,6917.827,95.436,540.812,538.573,0.0
52583.0,STARLINK-3895,PAYLOAD,2024-06-16 22:22:53,15.08839833,0.0001555,53.2171,70.702,90.9248,269.1923,0.00046182,7.069e-05,0.0,0 STARLINK-3895,1 52583U 22051AZ  24168.93256649  .00007069  00000-0  46182-3 0  9994,2 52583  53.2171  70.7020 0001555  90.9248 269.1923 15.08839833116365,6917.881,95.438,540.822,538.67,0.0
